{"type": "FeatureCollection", "features": [ {"type": "Feature", "properties": {"norad_id": 31327, "name": "FENGYUN 1C DEB", "group": "fengyun-1c-debris", "lat": -55.29223180464393, "lon": 145.34823601899106, "alt_km": 600.6098307313387, "timestamp": "2025-12-04T13:52:00.724440+00:00", "meta": {"OBJECT_NAME": "FENGYUN 1C DEB", "OBJECT_ID": "1999-025BQF", "EPOCH": "2025-12-02T05:09:54.181152", "MEAN_MOTION": 15.09995749, "ECCENTRICITY": 0.0089281, "INCLINATION": 98.9847, "RA_OF_ASC_NODE": 335.7853, "ARG_OF_PERICENTER": 44.0162, "MEAN_ANOMALY": 316.8127, "EPHEMERIS_TYPE": 0, "CLASSIFICATION_TYPE": "U", "NORAD_CAT_ID": 31327, "ELEMENT_SET_NO": 999, "REV_AT_EPOCH": 99941, "BSTAR": 0.0018104, "MEAN_MOTION_DOT": 0.00032362, "MEAN_MOTION_DDOT": 0}, "tle": {"line1": "1 31327U 99025BQF 25336.21521043  .00032362  00000+0  18104-2 0  9999", "line2": "2 31327  98.9847 335.7853 0089281  44.0162 316.8127 15.09995749999410"}}, "geometry": {"type": "Point", "coordinates": [145.34823601899106, -55.29223180464393]}}, {"type": "Feature", "properties": {"norad_id": 31328, "name": "FENGYUN 1C DEB", "group": "fengyun-1c-debris", "lat": -77.77411287719309, "lon": -3.9072353980407972, "alt_km": 744.0450709244506, "timestamp": "2025-12-04T13:52:00.724450+00:00", "meta": {"OBJECT_NAME": "FENGYUN 1C DEB", "OBJECT_ID": "1999-025BQG", "EPOCH": "2025-12-04T04:09:41.615712", "MEAN_MOTION": 14.28938772, "ECCENTRICITY": 0.01032912, "INCLINATION": 98.4822, "RA_OF_ASC_NODE": 312.1716, "ARG_OF_PERICENTER": 241.8747, "MEAN_ANOMALY": 117.1966, "EPHEMERIS_TYPE": 0, "CLASSIFICATION_TYPE": "U", "NORAD_CAT_ID": 31328, "ELEMENT_SET_NO": 999, "REV_AT_EPOCH": 97340, "BSTAR": 0.00015765201, "MEAN_MOTION_DOT": 3.78e-06, "MEAN_MOTION_DDOT": 0}, "tle": {"line1": "1 31328U 99025BQG 25338.17339833  .00000378  00000+0  15765-3 0  9994", "line2": "2 31328  98.4822 312.1716 0103291 241.8747 117.1966 14.28938772973407"}}, "geometry": {"type": "Point", "coordinates": [-3.9072353980407972, -77.77411287719309]}}, {"type": "Feature", "properties": {"norad_id": 31330, "name": "FENGYUN 1C DEB", "group": "fengyun-1c-debris", "lat": -36.04053669189917, "lon": -44.796053801715324, "alt_km": 545.5083708265538, "timestamp": "2025-12-04T13:52:00.724460+00:00", "meta": {"OBJECT_NAME": "FENGYUN 1C DEB", "OBJECT_ID": "1999-025BQJ", "EPOCH": "2025-12-03T16:46:11.637120", "MEAN_MOTION": 15.06430456, "ECCENTRICITY": 0.00102553, "INCLINATION": 98.8853, "RA_OF_ASC_NODE": 140.7272, "ARG_OF_PERICENTER": 234.7843, "MEAN_ANOMALY": 256.8456, "EPHEMERIS_TYPE": 0, "CLASSIFICATION_TYPE": "U", "NORAD_CAT_ID": 31330, "ELEMENT_SET_NO": 999, "REV_AT_EPOCH": 96993, "BSTAR": 0.013855489, "MEAN_MOTION_DOT": 0.00210454, "MEAN_MOTION_DDOT": 0}, "tle": {"line1": "1 31330U 99025BQJ 25337.69874580  .00210454  00000+0  13855-1 0  9990", "line2": "2 31330  98.8853 140.7272 0010255 234.7843 256.8456 15.06430456969936"}}, "geometry": {"type": "Point", "coordinates": [-44.796053801715324, -36.04053669189917]}}, {"type": "Feature", "properties": {"norad_id": 31331, "name": "FENGYUN 1C DEB", "group": "fengyun-1c-debris", "lat": 8.584621051544062, "lon": 3.297508249017202, "alt_km": 930.3316900032332, "timestamp": "2025-12-04T13:52:00.724470+00:00", "meta": {"OBJECT_NAME": "FENGYUN 1C DEB", "OBJECT_ID": "1999-025BQK", "EPOCH": "2025-12-03T20:40:48.549792", "MEAN_MOTION": 14.00608302, "ECCENTRICITY": 0.0053001, "INCLINATION": 98.8719, "RA_OF_ASC_NODE": 3.9535, "ARG_OF_PERICENTER": 207.2235, "MEAN_ANOMALY": 152.615, "EPHEMERIS_TYPE": 0, "CLASSIFICATION_TYPE": "U", "NORAD_CAT_ID": 31331, "ELEMENT_SET_NO": 999, "REV_AT_EPOCH": 63732, "BSTAR": 0.00047073, "MEAN_MOTION_DOT": 6.66e-06, "MEAN_MOTION_DDOT": 0}, "tle": {"line1": "1 31331U 99025BQK 25337.86167303  .00000666  00000+0  47073-3 0  9991", "line2": "2 31331  98.8719   3.9535 0053001 207.2235 152.6150 14.00608302637325"}}, "geometry": {"type": "Point", "coordinates": [3.297508249017202, 8.584621051544062]}}, {"type": "Feature", "properties": {"norad_id": 31332, "name": "FENGYUN 1C DEB", "group": "fengyun-1c-debris", "lat": -37.70278911849474, "lon": 162.35075314337442, "alt_km": 895.3646220002129, "timestamp": "2025-12-04T13:52:00.724480+00:00", "meta": {"OBJECT_NAME": "FENGYUN 1C DEB", "OBJECT_ID": "1999-025BQL", "EPOCH": "2025-12-03T12:02:49.078752", "MEAN_MOTION": 14.11793945, "ECCENTRICITY": 0.00502824, "INCLINATION": 98.7068, "RA_OF_ASC_NODE": 348.1092, "ARG_OF_PERICENTER": 51.2719, "MEAN_ANOMALY": 101.942, "EPHEMERIS_TYPE": 0, "CLASSIFICATION_TYPE": "U", "NORAD_CAT_ID": 31332, "ELEMENT_SET_NO": 999, "REV_AT_EPOCH": 95841, "BSTAR": 0.001211905, "MEAN_MOTION_DOT": 2.194e-05, "MEAN_MOTION_DDOT": 0}, "tle": {"line1": "1 31332U 99025BQL 25337.50195693  .00002194  00000+0  12119-2 0  9996", "line2": "2 31332  98.7068 348.1092 0050282  51.2719 101.9420 14.11793945958419"}}, "geometry": {"type": "Point", "coordinates": [162.35075314337442, -37.70278911849474]}}, {"type": "Feature", "properties": {"norad_id": 31333, "name": "FENGYUN 1C DEB", "group": "fengyun-1c-debris", "lat": 0.7257450575359422, "lon": -6.651940364076372, "alt_km": 759.4568791817064, "timestamp": "2025-12-04T13:52:00.724489+00:00", "meta": {"OBJECT_NAME": "FENGYUN 1C DEB", "OBJECT_ID": "1999-025BQM", "EPOCH": "2025-11-27T18:34:18.195744", "MEAN_MOTION": 14.2646395, "ECCENTRICITY": 0.00993772, "INCLINATION": 98.4299, "RA_OF_ASC_NODE": 346.9035, "ARG_OF_PERICENTER": 70.1894, "MEAN_ANOMALY": 290.9968, "EPHEMERIS_TYPE": 0, "CLASSIFICATION_TYPE": "U", "NORAD_CAT_ID": 31333, "ELEMENT_SET_NO": 999, "REV_AT_EPOCH": 96378, "BSTAR": 0.00071340675, "MEAN_MOTION_DOT": 1.769e-05, "MEAN_MOTION_DDOT": 0}, "tle": {"line1": "1 31333U 99025BQM 25331.77382171  .00001769  00000+0  71341-3 0  9999", "line2": "2 31333  98.4299 346.9035 0099377  70.1894 290.9968 14.26463950963786"}}, "geometry": {"type": "Point", "coordinates": [-6.651940364076372, 0.7257450575359422]}}, {"type": "Feature", "properties": {"norad_id": 31336, "name": "FENGYUN 1C DEB", "group": "fengyun-1c-debris", "lat": 67.88696711043048, "lon": -124.57939857674423, "alt_km": 699.4757297825281, "timestamp": "2025-12-04T13:52:00.724499+00:00", "meta": {"OBJECT_NAME": "FENGYUN 1C DEB", "OBJECT_ID": "1999-025BQQ", "EPOCH": "2025-12-03T02:26:40.162272", "MEAN_MOTION": 14.38666089, "ECCENTRICITY": 0.00937673, "INCLINATION": 98.4662, "RA_OF_ASC_NODE": 32.4606, "ARG_OF_PERICENTER": 147.1631, "MEAN_ANOMALY": 244.128, "EPHEMERIS_TYPE": 0, "CLASSIFICATION_TYPE": "U", "NORAD_CAT_ID": 31336, "ELEMENT_SET_NO": 999, "REV_AT_EPOCH": 97652, "BSTAR": 0.00045621257, "MEAN_MOTION_DOT": 1.427e-05, "MEAN_MOTION_DDOT": 0}, "tle": {"line1": "1 31336U 99025BQQ 25337.10185373  .00001427  00000+0  45621-3 0  9993", "line2": "2 31336  98.4662  32.4606 0093767 147.1631 244.1280 14.38666089976520"}}, "geometry": {"type": "Point", "coordinates": [-124.57939857674423, 67.88696711043048]}}, {"type": "Feature", "properties": {"norad_id": 31338, "name": "FENGYUN 1C DEB", "group": "fengyun-1c-debris", "lat": -35.60406697060627, "lon": -7.609189350472346, "alt_km": 822.7660963186981, "timestamp": "2025-12-04T13:52:00.724509+00:00", "meta": {"OBJECT_NAME": "FENGYUN 1C DEB", "OBJECT_ID": "1999-025BQS", "EPOCH": "2025-12-01T07:05:57.780096", "MEAN_MOTION": 14.20532057, "ECCENTRICITY": 0.00715092, "INCLINATION": 98.7164, "RA_OF_ASC_NODE": 175.4621, "ARG_OF_PERICENTER": 142.709, "MEAN_ANOMALY": 217.9082, "EPHEMERIS_TYPE": 0, "CLASSIFICATION_TYPE": "U", "NORAD_CAT_ID": 31338, "ELEMENT_SET_NO": 999, "REV_AT_EPOCH": 63495, "BSTAR": 0.0029930987, "MEAN_MOTION_DOT": 6.56e-05, "MEAN_MOTION_DDOT": 0}, "tle": {"line1": "1 31338U 99025BQS 25335.29580764  .00006560  00000+0  29931-2 0  9994", "line2": "2 31338  98.7164 175.4621 0071509 142.7090 217.9082 14.20532057634951"}}, "geometry": {"type": "Point", "coordinates": [-7.609189350472346, -35.60406697060627]}}, {"type": "Feature", "properties": {"norad_id": 31339, "name": "FENGYUN 1C DEB", "group": "fengyun-1c-debris", "lat": 51.404132929061014, "lon": -173.45159701161248, "alt_km": 887.8321269486178, "timestamp": "2025-12-04T13:52:00.724519+00:00", "meta": {"OBJECT_NAME": "FENGYUN 1C DEB", "OBJECT_ID": "1999-025BQT", "EPOCH": "2025-12-03T18:33:38.101824", "MEAN_MOTION": 14.12120001, "ECCENTRICITY": 0.0074571, "INCLINATION": 98.7147, "RA_OF_ASC_NODE": 354.6873, "ARG_OF_PERICENTER": 350.9755, "MEAN_ANOMALY": 9.0072, "EPHEMERIS_TYPE": 0, "CLASSIFICATION_TYPE": "U", "NORAD_CAT_ID": 31339, "ELEMENT_SET_NO": 999, "REV_AT_EPOCH": 95551, "BSTAR": 0.0012987262, "MEAN_MOTION_DOT": 2.403e-05, "MEAN_MOTION_DDOT": 0}, "tle": {"line1": "1 31339U 99025BQT 25337.77335766  .00002403  00000+0  12987-2 0  9995", "line2": "2 31339  98.7147 354.6873 0074571 350.9755   9.0072 14.12120001955516"}}, "geometry": {"type": "Point", "coordinates": [-173.45159701161248, 51.404132929061014]}}, {"type": "Feature", "properties": {"norad_id": 31341, "name": "FENGYUN 1C DEB", "group": "fengyun-1c-debris", "lat": 2.9281279011437245, "lon": 18.198755361789882, "alt_km": 680.3269952475339, "timestamp": "2025-12-04T13:52:00.724529+00:00", "meta": {"OBJECT_NAME": "FENGYUN 1C DEB", "OBJECT_ID": "1999-025BQV", "EPOCH": "2025-12-03T01:38:08.568672", "MEAN_MOTION": 14.53153541, "ECCENTRICITY": 0.00534276, "INCLINATION": 99.5566, "RA_OF_ASC_NODE": 16.9736, "ARG_OF_PERICENTER": 15.7878, "MEAN_ANOMALY": 14.3859, "EPHEMERIS_TYPE": 0, "CLASSIFICATION_TYPE": "U", "NORAD_CAT_ID": 31341, "ELEMENT_SET_NO": 999, "REV_AT_EPOCH": 97478, "BSTAR": 0.0016407695, "MEAN_MOTION_DOT": 6.869e-05, "MEAN_MOTION_DDOT": 0}, "tle": {"line1": "1 31341U 99025BQV 25337.06815473  .00006869  00000+0  16408-2 0  9990", "line2": "2 31341  99.5566  16.9736 0053427  15.7878  14.3859 14.53153541974780"}}, "geometry": {"type": "Point", "coordinates": [18.198755361789882, 2.9281279011437245]}}]}